[{"OBJECT_NAME":"ONEWEB-0262","OBJECT_ID":"2021-060P","EPOCH":"2025-10-06T23:16:10.089408","MEAN_MOTION":13.16593616,"ECCENTRICITY":0.00020766,"INCLINATION":87.8972,"RA_OF_ASC_NODE":279.2224,"ARG_OF_PERICENTER":98.9945,"MEAN_ANOMALY":261.1421,"EPHEMERIS_TYPE":0,"CLASSIFICATION_TYPE":"U","NORAD_CAT_ID":48980,"ELEMENT_SET_NO":999,"REV_AT_EPOCH":20630,"BSTAR":0.00026714482,"MEAN_MOTION_DOT":1.15e-6,"MEAN_MOTION_DDOT":0},{"OBJECT_NAME":"ONEWEB-0263","OBJECT_ID":"2021-060Q","EPOCH":"2025-10-07T05:30:04.087872","MEAN_MOTION":13.16610192,"ECCENTRICITY":0.00017843,"INCLINATION":87.8956,"RA_OF_ASC_NODE":279.1905,"ARG_OF_PERICENTER":101.6035,"MEAN_ANOMALY":258.5297,"EPHEMERIS_TYPE":0,"CLASSIFICATION_TYPE":"U","NORAD_CAT_ID":48981,"ELEMENT_SET_NO":999,"REV_AT_EPOCH":20630,"BSTAR":0.00029034239,"MEAN_MOTION_DOT":1.24e-6,"MEAN_MOTION_DDOT":0},{"OBJECT_NAME":"ONEWEB-0264","OBJECT_ID":"2021-060R","EPOCH":"2025-10-07T06:23:39.647904","MEAN_MOTION":13.16595507,"ECCENTRICITY":0.00016043,"INCLINATION":87.896,"RA_OF_ASC_NODE":279.1874,"ARG_OF_PERICENTER":89.4645,"MEAN_ANOMALY":270.667,"EPHEMERIS_TYPE":0,"CLASSIFICATION_TYPE":"U","NORAD_CAT_ID":48982,"ELEMENT_SET_NO":999,"REV_AT_EPOCH":20631,"BSTAR":-0.00016641715,"MEAN_MOTION_DOT":-5.1e-7,"MEAN_MOTION_DDOT":0},{"OBJECT_NAME":"ONEWEB-0266","OBJECT_ID":"2021-060T","EPOCH":"2025-10-07T06:54:25.714368","MEAN_MOTION":13.16593162,"ECCENTRICITY":0.00020321,"INCLINATION":87.8968,"RA_OF_ASC_NODE":279.1625,"ARG_OF_PERICENTER":91.7392,"MEAN_ANOMALY":268.3972,"EPHEMERIS_TYPE":0,"CLASSIFICATION_TYPE":"U","NORAD_CAT_ID":48984,"ELEMENT_SET_NO":999,"REV_AT_EPOCH":20630,"BSTAR":0.00011623803,"MEAN_MOTION_DOT":5.7e-7,"MEAN_MOTION_DDOT":0},{"OBJECT_NAME":"ONEWEB-0267","OBJECT_ID":"2021-060U","EPOCH":"2025-10-06T18:24:19.423008","MEAN_MOTION":13.1659656,"ECCENTRICITY":0.00017869,"INCLINATION":87.8965,"RA_OF_ASC_NODE":279.2688,"ARG_OF_PERICENTER":95.1225,"MEAN_ANOMALY":265.011,"EPHEMERIS_TYPE":0,"CLASSIFICATION_TYPE":"U","NORAD_CAT_ID":48985,"ELEMENT_SET_NO":999,"REV_AT_EPOCH":20624,"BSTAR":-9.6834504e-5,"MEAN_MOTION_DOT":-2.4e-7,"MEAN_MOTION_DDOT":0},{"OBJECT_NAME":"ONEWEB-0268","OBJECT_ID":"2021-060V","EPOCH":"2025-10-07T06:24:46.877472","MEAN_MOTION":13.16593346,"ECCENTRICITY":0.00018309,"INCLINATION":87.8974,"RA_OF_ASC_NODE":279.1748,"ARG_OF_PERICENTER":88.5455,"MEAN_ANOMALY":271.5885,"EPHEMERIS_TYPE":0,"CLASSIFICATION_TYPE":"U","NORAD_CAT_ID":48986,"ELEMENT_SET_NO":999,"REV_AT_EPOCH":20657,"BSTAR":-6.597802e-5,"MEAN_MOTION_DOT":-1.2e-7,"MEAN_MOTION_DDOT":0},{"OBJECT_NAME":"ONEWEB-0269","OBJECT_ID":"2021-060W","EPOCH":"2025-10-07T05:57:27.125568","MEAN_MOTION":13.1659613,"ECCENTRICITY":0.00018644,"INCLINATION":87.8959,"RA_OF_ASC_NODE":279.2073,"ARG_OF_PERICENTER":83.0528,"MEAN_ANOMALY":277.0815,"EPHEMERIS_TYPE":0,"CLASSIFICATION_TYPE":"U","NORAD_CAT_ID":48987,"ELEMENT_SET_NO":999,"REV_AT_EPOCH":20634,"BSTAR":-0.0001963851,"MEAN_MOTION_DOT":-6.2e-7,"MEAN_MOTION_DDOT":0},{"OBJECT_NAME":"ONEWEB-0270","OBJECT_ID":"2021-060X","EPOCH":"2025-10-07T06:22:31.387584","MEAN_MOTION":13.16584234,"ECCENTRICITY":0.0001757,"INCLINATION":87.897,"RA_OF_ASC_NODE":279.1789,"ARG_OF_PERICENTER":103.2996,"MEAN_ANOMALY":256.8331,"EPHEMERIS_TYPE":0,"CLASSIFICATION_TYPE":"U","NORAD_CAT_ID":48988,"ELEMENT_SET_NO":999,"REV_AT_EPOCH":20638,"BSTAR":0.0066435967,"MEAN_MOTION_DOT":2.553e-5,"MEAN_MOTION_DDOT":0},{"OBJECT_NAME":"ONEWEB-0271","OBJECT_ID":"2021-060Y","EPOCH":"2025-10-07T06:04:15.998880","MEAN_MOTION":13.16592981,"ECCENTRICITY":0.0001682,"INCLINATION":87.897,"RA_OF_ASC_NODE":279.1639,"ARG_OF_PERICENTER":96.4698,"MEAN_ANOMALY":263.6624,"EPHEMERIS_TYPE":0,"CLASSIFICATION_TYPE":"U","NORAD_CAT_ID":48989,"ELEMENT_SET_NO":999,"REV_AT_EPOCH":20638,"BSTAR":7.236287e-6,"MEAN_MOTION_DOT":1.6e-7,"MEAN_MOTION_DDOT":0},{"OBJECT_NAME":"ONEWEB-0272","OBJECT_ID":"2021-060Z","EPOCH":"2025-10-07T06:36:11.392704","MEAN_MOTION":13.16593738,"ECCENTRICITY":0.00015938,"INCLINATION":87.8962,"RA_OF_ASC_NODE":279.1853,"ARG_OF_PERICENTER":91.6412,"MEAN_ANOMALY":268.4902,"EPHEMERIS_TYPE":0,"CLASSIFICATION_TYPE":"U","NORAD_CAT_ID":48990,"ELEMENT_SET_NO":999,"REV_AT_EPOCH":20633,"BSTAR":1.7729289e-5,"MEAN_MOTION_DOT":2.0e-7,"MEAN_MOTION_DDOT":0},{"OBJECT_NAME":"ONEWEB-0273","OBJECT_ID":"2021-060AA","EPOCH":"2025-10-07T07:08:06.368352","MEAN_MOTION":13.16596091,"ECCENTRICITY":0.00018893,"INCLINATION":87.8966,"RA_OF_ASC_NODE":279.1706,"ARG_OF_PERICENTER":95.887,"MEAN_ANOMALY":264.2476,"EPHEMERIS_TYPE":0,"CLASSIFICATION_TYPE":"U","NORAD_CAT_ID":48991,"ELEMENT_SET_NO":999,"REV_AT_EPOCH":20631,"BSTAR":0.00045839069,"MEAN_MOTION_DOT":1.88e-6,"MEAN_MOTION_DDOT":0},{"OBJECT_NAME":"ONEWEB-0274","OBJECT_ID":"2021-060AB","EPOCH":"2025-10-07T05:55:09.434208","MEAN_MOTION":13.16594111,"ECCENTRICITY":0.00015157,"INCLINATION":87.8957,"RA_OF_ASC_NODE":279.2102,"ARG_OF_PERICENTER":82.2498,"MEAN_ANOMALY":277.8805,"EPHEMERIS_TYPE":0,"CLASSIFICATION_TYPE":"U","NORAD_CAT_ID":48992,"ELEMENT_SET_NO":999,"REV_AT_EPOCH":20634,"BSTAR":-0.0001805171,"MEAN_MOTION_DOT":-5.6e-7,"MEAN_MOTION_DDOT":0},{"OBJECT_NAME":"ONEWEB-0275","OBJECT_ID":"2021-060AC","EPOCH":"2025-10-07T05:39:11.949408","MEAN_MOTION":13.16592051,"ECCENTRICITY":0.00017491,"INCLINATION":87.8968,"RA_OF_ASC_NODE":279.177,"ARG_OF_PERICENTER":89.6786,"MEAN_ANOMALY":270.4545,"EPHEMERIS_TYPE":0,"CLASSIFICATION_TYPE":"U","NORAD_CAT_ID":48993,"ELEMENT_SET_NO":999,"REV_AT_EPOCH":20627,"BSTAR":0.0016193562,"MEAN_MOTION_DOT":6.32e-6,"MEAN_MOTION_DDOT":0},{"OBJECT_NAME":"ONEWEB-0276","OBJECT_ID":"2021-060AD","EPOCH":"2025-10-07T06:27:03.729024","MEAN_MOTION":13.1659297,"ECCENTRICITY":0.00020306,"INCLINATION":87.8974,"RA_OF_ASC_NODE":279.1685,"ARG_OF_PERICENTER":94.5956,"MEAN_ANOMALY":265.5407,"EPHEMERIS_TYPE":0,"CLASSIFICATION_TYPE":"U","NORAD_CAT_ID":48994,"ELEMENT_SET_NO":999,"REV_AT_EPOCH":20629,"BSTAR":0.0001964395,"MEAN_MOTION_DOT":8.8e-7,"MEAN_MOTION_DDOT":0},{"OBJECT_NAME":"ONEWEB-0277","OBJECT_ID":"2021-060AE","EPOCH":"2025-10-05T10:58:44.931936","MEAN_MOTION":13.16405232,"ECCENTRICITY":0.00019813,"INCLINATION":87.8955,"RA_OF_ASC_NODE":279.5622,"ARG_OF_PERICENTER":98.2067,"MEAN_ANOMALY":261.9289,"EPHEMERIS_TYPE":0,"CLASSIFICATION_TYPE":"U","NORAD_CAT_ID":48995,"ELEMENT_SET_NO":999,"REV_AT_EPOCH":20604,"BSTAR":-0.042459264,"MEAN_MOTION_DOT":-0.00016145,"MEAN_MOTION_DDOT":0},{"OBJECT_NAME":"ONEWEB-0278","OBJECT_ID":"2021-060AF","EPOCH":"2025-10-07T01:03:19.695744","MEAN_MOTION":13.16593246,"ECCENTRICITY":0.0002123,"INCLINATION":87.8969,"RA_OF_ASC_NODE":279.2101,"ARG_OF_PERICENTER":90.9646,"MEAN_ANOMALY":269.1728,"EPHEMERIS_TYPE":0,"CLASSIFICATION_TYPE":"U","NORAD_CAT_ID":48996,"ELEMENT_SET_NO":999,"REV_AT_EPOCH":20638,"BSTAR":-6.2108894e-5,"MEAN_MOTION_DOT":-1.1e-7,"MEAN_MOTION_DDOT":0}]
