ONEWEB-0262             
1 48980U 21060P   25279.96956122  .00000115  00000+0  26714-3 0  9992
2 48980  87.8972 279.2224 0002076  98.9945 261.1421 13.16593616206308
ONEWEB-0263             
1 48981U 21060Q   25280.22921398  .00000124  00000+0  29034-3 0  9999
2 48981  87.8956 279.1905 0001784 101.6035 258.5297 13.16610192206303
ONEWEB-0264             
1 48982U 21060R   25280.26643111 -.00000051  00000+0 -16642-3 0  9990
2 48982  87.8960 279.1874 0001604  89.4645 270.6670 13.16595507206318
ONEWEB-0266             
1 48984U 21060T   25280.28779762  .00000057  00000+0  11624-3 0  9995
2 48984  87.8968 279.1625 0002032  91.7392 268.3972 13.16593162206306
ONEWEB-0267             
1 48985U 21060U   25279.76689147 -.00000024  00000+0 -96835-4 0  9998
2 48985  87.8965 279.2688 0001786  95.1225 265.0110 13.16596560206248
ONEWEB-0268             
1 48986U 21060V   25280.26720923 -.00000012  00000+0 -65978-4 0  9995
2 48986  87.8974 279.1748 0001830  88.5455 271.5885 13.16593346206572
ONEWEB-0269             
1 48987U 21060W   25280.24823062 -.00000062  00000+0 -19639-3 0  9999
2 48987  87.8959 279.2073 0001864  83.0528 277.0815 13.16596130206349
ONEWEB-0270             
1 48988U 21060X   25280.26564106  .00002553  00000+0  66436-2 0  9994
2 48988  87.8970 279.1789 0001757 103.2996 256.8331 13.16584234206385
ONEWEB-0271             
1 48989U 21060Y   25280.25296295  .00000016  00000+0  72363-5 0  9996
2 48989  87.8970 279.1639 0001682  96.4698 263.6624 13.16592981206388
ONEWEB-0272             
1 48990U 21060Z   25280.27513186  .00000020  00000+0  17729-4 0  9990
2 48990  87.8962 279.1853 0001593  91.6412 268.4902 13.16593738206339
ONEWEB-0273             
1 48991U 21060AA  25280.29729593  .00000188  00000+0  45839-3 0  9991
2 48991  87.8966 279.1706 0001889  95.8870 264.2476 13.16596091206316
ONEWEB-0274             
1 48992U 21060AB  25280.24663697 -.00000056  00000+0 -18052-3 0  9992
2 48992  87.8957 279.2102 0001515  82.2498 277.8805 13.16594111206340
ONEWEB-0275             
1 48993U 21060AC  25280.23555497  .00000632  00000+0  16194-2 0  9992
2 48993  87.8968 279.1770 0001749  89.6786 270.4545 13.16592051206276
ONEWEB-0276             
1 48994U 21060AD  25280.26879316  .00000088  00000+0  19644-3 0  9994
2 48994  87.8974 279.1685 0002030  94.5956 265.5407 13.16592970206291
ONEWEB-0277             
1 48995U 21060AE  25278.45746449 -.00016145  00000+0 -42459-1 0  9994
2 48995  87.8955 279.5622 0001981  98.2067 261.9289 13.16405232206049
ONEWEB-0278             
1 48996U 21060AF  25280.04397796 -.00000011  00000+0 -62109-4 0  9992
2 48996  87.8969 279.2101 0002123  90.9646 269.1728 13.16593246206383
